SCD 1                   
1 22490U 93009B   26185.50555985  .00000543  00000+0  97600-4 0  9999
2 22490  24.9692 100.6429 0041699 321.5251 200.4215 14.46126267763628
TECHSAT 1B (GO-32)      
1 25397U 98043D   26185.41439164  .00000072  00000+0  51499-4 0  9994
2 25397  99.0076 178.6080 0001838 131.9279 228.2056 14.24431783453780
SCD 2                   
1 25504U 98060A   26185.64012696  .00000457  00000+0  76556-4 0  9993
2 25504  24.9964 324.5296 0016583 308.2024 153.1994 14.45532756462854
DLR-TUBSAT              
1 25757U 99029B   26185.44707841  .00000114  00000+0  39956-4 0  9993
2 25757  98.6703 181.5195 0013156 300.3541  59.6352 14.52431376435753
TERRA                   
1 25994U 99068A   26185.63628185  .00000621  00000+0  13521-3 0  9995
2 25994  97.9446 234.4899 0002873 143.9918  16.3015 14.61118561412157
MAROC-TUBSAT            
1 27004U 01056D   26185.44658993 -.00000032  00000+0  16695-4 0  9991
2 27004  99.8092   2.6320 0020623  98.5348 291.0295 13.70263116228555
AQUA                    
1 27424U 02022A   26185.66240198  .00001188  00000+0  24574-3 0  9995
2 27424  98.4287 155.2954 0000681  88.0238  84.8708 14.62187266285827
SHIYAN-1 (SY-1)         
1 28220U 04012A   26185.47006767  .00021535  00000+0  65146-3 0  9990
2 28220  97.8684 264.6660 0004265 325.4932  34.6032 15.34219702213742
AURA                    
1 28376U 04026A   26185.58309576  .00001159  00000+0  24413-3 0  9995
2 28376  98.3424 142.1812 0001184  87.5079 272.6257 14.61357703168752
IRS-P5 (CARTOSAT-1)     
1 28649U 05017A   26185.52626062  .00002033  00000+0  21044-3 0  9994
2 28649  97.5305 207.8041 0002004  59.7616 300.3801 14.91099495146403
SINAH 1                 
1 28893U 05043D   26185.61729114  .00000542  00000+0  11235-3 0  9990
2 28893  98.2883 320.0439 0013663 217.5828 142.4420 14.64170943103070
RESURS-DK 1             
1 29228U 06021A   26185.55233613  .00003220  00000+0  18643-3 0  9993
2 29228  69.9337 294.6009 0006707 282.9755  77.0662 15.13292377105206
ARIRANG-2 (KOMPSAT-2)   
1 29268U 06031A   26185.64745553  .00000387  00000+0  81035-4 0  9996
2 29268  97.8308   9.2488 0015140  23.5000  49.8393 14.64671073 64034
LAPAN-TUBSAT            
1 29709U 07001A   26185.62747286  .00001052  00000+0  12691-3 0  9998
2 29709  98.1344 185.2453 0013284 124.8165 235.4302 14.85969404 53749
HAIYANG-1B              
1 31113U 07010A   26185.20531475  .00000113  00000+0  58815-4 0  9991
2 31113  98.3505 166.3911 0014118 146.3401 213.8683 14.31031222  3072
COSMO-SKYMED 1          
1 31598U 07023A   26185.57900734  .00003023  00000+0  26667-3 0  9992
2 31598  97.8851  17.5817 0001161  83.5997 276.5356 14.97186923 32396
TERRASAR-X              
1 31698U 07026A   26185.11987693  .00000503  00000+0  27165-4 0  9990
2 31698  97.4455 192.5852 0001824  98.3423 261.8018 15.19147925 55795
WORLDVIEW-1 (WV-1)      
1 32060U 07041A   26185.29375022  .00007773  00000+0  31938-3 0  9995
2 32060  97.3897 304.7949 0000917 288.7428  71.3710 15.24460749 45480
YAOGAN-3                
1 32289U 07055A   26185.64537667  .00003444  00000+0  35525-3 0  9994
2 32289  97.8144 215.3510 0001812  80.6541 279.4882 14.90853072  8470
COSMO-SKYMED 2          
1 32376U 07059A   26185.64626096  .00000522  00000+0  72132-4 0  9990
2 32376  97.8890   8.9912 0001335  91.1699 268.9667 14.82160688  4596
RADARSAT-2              
1 32382U 07061A   26185.60050076 -.00000081  00000+0 -14369-4 0  9995
2 32382  98.5776 192.2842 0001303  84.3134 275.8197 14.29980980968440
CARTOSAT-2A             
1 32783U 08021A   26185.63371955  .00001319  00000+0  18396-3 0  9998
2 32783  97.7618 233.7465 0013170  58.5248 301.7249 14.79266998981383
HUANJING 1A (HJ-1A)     
1 33320U 08041A   26185.62983628  .00000798  00000+0  10165-3 0  9999
2 33320  97.6690 170.7942 0020624  81.5305 278.8246 14.84026323960999
HUANJING 1B (HJ-1B)     
1 33321U 08041B   26185.60689094  .00001350  00000+0  16897-3 0  9991
2 33321  97.6527 173.8914 0037570 124.5735 235.9033 14.83350093960996
GEOEYE 1                
1 33331U 08042A   26185.43557048  .00000551  00000+0  11257-3 0  9994
2 33331  98.1332 259.1571 0004744  20.6612 339.4782 14.64642605952670
THEOS                   
1 33396U 08049A   26185.65325419  .00000146  00000+0  88492-4 0  9997
2 33396  98.5557 242.3694 0001135  83.4862 276.6444 14.20135757920443
COSMO-SKYMED 3          
1 33412U 08054A   26185.60595763  .00004431  00000+0  29910-3 0  9998
2 33412  97.8264  44.4642 0014927 202.1739 157.8844 15.07065698959560
YAOGAN-4                
1 33446U 08061A   26185.57232768  .00001508  00000+0  19075-3 0  9995
2 33446  97.9307 118.9546 0014771  19.9650 340.2138 14.83237838948246
GOSAT (IBUKI)           
1 33492U 09002A   26185.59298968  .00000290  00000+0  59651-4 0  9990
2 33492  98.0905 296.4573 0001270  82.4342 277.7007 14.67540265934010
DEIMOS-1                
1 35681U 09041A   26185.61781080  .00000901  00000+0  14021-3 0  9990
2 35681  97.7424 342.0912 0002511 106.8900 253.2585 14.75256994909451
